ONEWEB-0264             
1 48982U 21060R   23352.60050802  .00000034  00000+0  56385-4 0  9993
2 48982  87.9083  50.2203 0001775 104.1668 255.9660 13.16592669119648
ONEWEB-0266             
1 48984U 21060T   23352.54666720  .00000070  00000+0  14935-3 0  9994
2 48984  87.9079  50.2136 0001933 101.4101 258.7247 13.16595402119626
ONEWEB-0267             
1 48985U 21060U   23352.55722549  .00000028  00000+0  39241-4 0  9999
2 48985  87.9079  50.2126 0001550 114.8981 245.2311 13.16592871119636
ONEWEB-0268             
1 48986U 21060V   23352.60155844 -.00002321  00000+0 -61066-2 0  9992
2 48986  87.9076  50.2091 0002683 117.0249 243.1156 13.16603508119909
ONEWEB-0269             
1 48987U 21060W   23352.58255678 -.00000018  00000+0 -79518-4 0  9990
2 48987  87.9069  50.2361 0001721  93.3437 266.7891 13.16594477119674
ONEWEB-0270             
1 48988U 21060X   23352.59945493  .00000037  00000+0  64195-4 0  9997
2 48988  87.9076  50.2201 0002093 122.0179 238.1156 13.16595642119719
ONEWEB-0271             
1 48989U 21060Y   23352.58679598 -.00000937  00000+0 -24838-2 0  9996
2 48989  87.9082  50.2011 0002005 117.0524 243.0812 13.16596487119719
ONEWEB-0272             
1 48990U 21060Z   23352.61000450  .00000084  00000+0  18719-3 0  9990
2 48990  87.9080  50.2195 0001694 112.0592 248.0719 13.16592861119662
